[{"OBJECT_NAME":"LUOJIA-1 01","OBJECT_ID":"2018-048B","EPOCH":"2026-03-09T23:50:59.082432","MEAN_MOTION":14.86876409,"ECCENTRICITY":0.00105485,"INCLINATION":97.8151,"RA_OF_ASC_NODE":148.7861,"ARG_OF_PERICENTER":88.6664,"MEAN_ANOMALY":271.576,"EPHEMERIS_TYPE":0,"CLASSIFICATION_TYPE":"U","NORAD_CAT_ID":43485,"ELEMENT_SET_NO":999,"REV_AT_EPOCH":41947,"BSTAR":0.00015202216,"MEAN_MOTION_DOT":1.304e-5,"MEAN_MOTION_DDOT":0},{"OBJECT_NAME":"IRIDIUM 33 DEB","OBJECT_ID":"1997-051DA","EPOCH":"2026-03-09T22:20:47.857344","MEAN_MOTION":14.89879448,"ECCENTRICITY":0.00311464,"INCLINATION":86.3457,"RA_OF_ASC_NODE":26.6591,"ARG_OF_PERICENTER":358.6789,"MEAN_ANOMALY":1.435,"EPHEMERIS_TYPE":0,"CLASSIFICATION_TYPE":"U","NORAD_CAT_ID":34091,"ELEMENT_SET_NO":999,"REV_AT_EPOCH":89161,"BSTAR":0.0051622466,"MEAN_MOTION_DOT":0.00050386,"MEAN_MOTION_DDOT":0}]
